STARLINK-2467           
1 48126U 21027AL  24129.58045689 -.00004018  00000+0 -25105-3 0  9996
2 48126  53.0549 279.8503 0001570  92.3499 267.7669 15.06386496171709
STARLINK-2468           
1 48127U 21027AM  24129.50490549 -.00003420  00000+0 -21089-3 0  9991
2 48127  53.0540 300.1930 0001307  96.2337 263.8801 15.06385710171405
STARLINK-2469           
1 48128U 21027AN  24129.55190769  .00013948  00000+0  95343-3 0  9996
2 48128  53.0542 230.0670 0001390  83.7198 276.3949 15.06400529172384
STARLINK-2471           
1 48129U 21027AP  24129.49752712  .00000934  00000+0  81605-4 0  9990
2 48129  53.0546 300.2238 0001072  83.6048 276.5063 15.06398568171409
STARLINK-2472           
1 48130U 21027AQ  24129.77106107  .00001551  00000+0  12560-3 0  9993
2 48130  53.0542 304.1928 0001347  95.7042 264.4100 15.05584136170975
STARLINK-2473           
1 48131U 21027AR  24129.70577843 -.00003411  00000+0 -21033-3 0  9990
2 48131  53.0539 279.2871 0001354  90.3486 269.7658 15.06380041171317
STARLINK-2474           
1 48132U 21027AS  24129.61916821  .00000436  00000+0  48157-4 0  9993
2 48132  53.0539 299.6778 0000959  72.7023 287.4071 15.06392812171417
STARLINK-2475           
1 48133U 21027AT  24129.74817580 -.00001880  00000+0 -10735-3 0  9996
2 48133  53.0559 299.1014 0001465  91.8923 268.2233 15.06394456171044
STARLINK-2476           
1 48134U 21027AU  24129.46803634 -.00001413  00000+0 -75978-4 0  9994
2 48134  53.0532 300.3565 0001950  87.2199 272.9013 15.06395503171395
STARLINK-2478           
1 48135U 21027AV  24129.46944914  .00001137  00000+0  95225-4 0  9990
2 48135  53.0544 305.5152 0001460  88.7966 271.3190 15.06390417171323
STARLINK-2479           
1 48136U 21027AW  24129.74086490  .00000597  00000+0  58964-4 0  9996
2 48136  53.0552 299.6346 0000975  82.3688 277.7412 15.06391439171032
STARLINK-2480           
1 48137U 21027AX  24129.71683213 -.00001735  00000+0 -97645-4 0  9996
2 48137  53.0541 279.2099 0001270  87.8392 272.2742 15.06390941171315
STARLINK-2481           
1 48138U 21027AY  24129.74448601  .00000510  00000+0  53141-4 0  9991
2 48138  53.0555 299.1163 0001579  93.2790 266.8379 15.06398228171040
STARLINK-2482           
1 48139U 21027AZ  24129.73527184 -.00001652  00000+0 -92047-4 0  9993
2 48139  53.0539 279.1557 0001350  86.1133 274.0011 15.06385394171322
STARLINK-2483           
1 48140U 21027BA  24129.62292769  .00001482  00000+0  11838-3 0  9998
2 48140  53.0537 300.2107 0001183  83.4613 276.6510 15.06389104171411
STARLINK-2484           
1 48141U 21027BB  24129.79240627  .00000433  00000+0  47953-4 0  9996
2 48141  53.0540 298.8996 0001377  93.8553 266.2594 15.06390565171057
STARLINK-2485           
1 48142U 21027BC  24129.73158741  .00000479  00000+0  51067-4 0  9997
2 48142  53.0547 279.1736 0001273  88.1192 271.9943 15.06389727171329
STARLINK-2486           
1 48143U 21027BD  24129.59016256  .00019372  00000+0  13165-2 0  9993
2 48143  53.0538 234.9044 0001334  88.6387 271.4754 15.06380234172320
STARLINK-2487           
1 48144U 21027BE  24129.73895469 -.00000784  00000+0 -33755-4 0  9999
2 48144  53.0537 279.1391 0001357  84.9385 275.1759 15.06388762171327
STARLINK-2488           
1 48145U 21027BF  24129.60993947 -.00002059  00000+0 -11938-3 0  9991
2 48145  53.0530 279.7185 0001167  90.6121 269.5002 15.06401383171704
STARLINK-2489           
1 48146U 21027BG  24129.91667824  .00223223  00000+0  14676-2 0  9995
2 48146  53.0497 281.2593 0003600 318.9341 307.4650 15.74508560171310
STARLINK-2490           
1 48147U 21027BH  24129.69169073  .00019311  00000+0  16361-3 0  9999
2 48147  53.0536 283.2070 0000783  68.7622 291.3478 15.69747184171262
STARLINK-2491           
1 48148U 21027BJ  24129.77397247 -.00004021  00000+0 -25128-3 0  9990
2 48148  53.0533 298.9819 0001311  84.5756 275.5382 15.06386392171041
STARLINK-2492           
1 48149U 21027BK  24129.58782990 -.00005911  00000+0 -37838-3 0  9993
2 48149  53.0550 279.8187 0001480  99.9239 260.1917 15.06385353171691
STARLINK-2493           
1 48150U 21027BL  24129.59151393 -.00002279  00000+0 -13417-3 0  9994
2 48150  53.0546 279.8016 0001908  90.4757 269.6450 15.06391764171706
STARLINK-2503           
1 48151U 21027BM  24129.59519833 -.00004963  00000+0 -31467-3 0  9999
2 48151  53.0537 279.7851 0000943  78.6912 281.4183 15.06381403171706
STARLINK-2567           
1 48276U 21036A   24129.50351155 -.00000728  00000+0 -29989-4 0  9991
2 48276  53.0516 175.1960 0001544  69.2875 290.8279 15.06402909167792
STARLINK-2569           
1 48277U 21036B   24129.43855437 -.00000658  00000+0 -25281-4 0  9999
2 48277  53.0532 140.4901 0001266  91.2887 268.8247 15.06396217168278
STARLINK-2543           
1 48278U 21036C   24129.47588476  .00002738  00000+0  20260-3 0  9990
2 48278  53.0516 155.4026 0001511  77.1797 282.9361 15.06409248168061
STARLINK-2580           
1 48279U 21036D   24129.46850537  .00005187  00000+0  36673-3 0  9996
2 48279  53.0517 155.3528 0001145  96.3566 263.7553 15.06415468168060
STARLINK-2565           
1 48280U 21036E   24129.52839370  .00007667  00000+0  53311-3 0  9990
2 48280  53.0530 225.0856 0001314  84.9018 275.2121 15.06394735167093
STARLINK-2520           
1 48281U 21036F   24129.60765181  .00003898  00000+0  28036-3 0  9996
2 48281  53.0541 204.7311 0001170  98.7451 261.3670 15.06410188167388
STARLINK-2558           
1 48282U 21036G   24129.49844455 -.00003185  00000+0 -19512-3 0  9996
2 48282  53.0537 210.2235 0001314  86.6372 273.4768 15.06387374167303
STARLINK-2516           
1 48283U 21036H   24129.49475281  .00010424  00000+0  71736-3 0  9992
2 48283  53.0533 210.2358 0001266  90.7258 269.3876 15.06416491167308
STARLINK-2564           
1 48284U 21036J   24129.49106917  .00008540  00000+0  59132-3 0  9992
2 48284  53.0534 210.2546 0001353  83.9590 276.1553 15.06411755167293
STARLINK-2548           
1 48285U 21036K   24129.58334491  .01115413  00000+0  54678-2 0  9991
2 48285  53.0498 185.2185 0001237  70.6192 293.0880 15.79156767  6073
STARLINK-2547           
1 48286U 21036L   24129.50952966 -.00002008  00000+0 -11598-3 0  9998
2 48286  53.0542 210.4399 0001355  87.1651 272.9493 15.06398186167297
STARLINK-2566           
1 48287U 21036M   24129.54635692  .00003204  00000+0  23383-3 0  9999
2 48287  53.0523 210.0022 0001136  93.5750 266.5369 15.06405342167883
STARLINK-2562           
1 48288U 21036N   24129.48370602  .00007060  00000+0  49223-3 0  9995
2 48288  53.0528 210.3623 0001397  86.8874 273.2275 15.06413432167295
STARLINK-2545           
1 48289U 21036P   24129.60533499  .00003103  00000+0  22710-3 0  9991
2 48289  53.0530 209.7418 0001218  91.3160 268.7968 15.06401244167313
STARLINK-2540           
1 48290U 21036Q   24129.60164594  .00002431  00000+0  18204-3 0  9995
2 48290  53.0531 209.7580 0001258  98.9234 261.1897 15.06400339167317
STARLINK-2555           
1 48291U 21036R   24129.59796802 -.00004527  00000+0 -28535-3 0  9995
2 48291  53.0536 209.7747 0001147 107.3131 252.7984 15.06383116167895
STARLINK-2542           
1 48292U 21036S   24129.54268779  .00003497  00000+0  25353-3 0  9996
2 48292  53.0532 210.1861 0001024  98.2792 261.8313 15.06401685167305
STARLINK-2550           
1 48293U 21036T   24129.52425037  .00002230  00000+0  16862-3 0  9996
2 48293  53.0540 210.1030 0001336  55.4012 304.7103 15.06388337167301
STARLINK-2533           
1 48294U 21036U   24129.52057080  .00005299  00000+0  37431-3 0  9999
2 48294  53.0539 210.1212 0001283  72.5470 287.5659 15.06408442167305
STARLINK-2535           
1 48295U 21036V   24129.51687414 -.00005896  00000+0 -37743-3 0  9990
2 48295  53.0538 210.1376 0001411  94.3129 265.8021 15.06383017167304
STARLINK-2546           
1 48296U 21036W   24129.51318647 -.00002139  00000+0 -12479-3 0  9996
2 48296  53.0523 210.1535 0001245  71.5498 288.5626 15.06393223167300
STARLINK-2544           
1 48297U 21036X   24129.58334491  .01118720  00000+0  54431-2 0  9995
2 48297  53.0500 185.2217 0001385  66.6342 175.0914 15.79316789  5812
STARLINK-2559           
1 48298U 21036Y   24129.50582902  .00000909  00000+0  79893-4 0  9999
2 48298  53.0522 210.1883 0001100  81.6346 278.4767 15.06405058167305
STARLINK-2557           
1 48299U 21036Z   24129.50211843 -.00004170  00000+0 -26125-3 0  9998
2 48299  53.0523 210.2036 0001360  68.8020 291.3114 15.06391939167304
STARLINK-2538           
1 48300U 21036AA  24129.56018344 -.00004415  00000+0 -27783-3 0  9991
2 48300  53.0540 219.9449 0001449  82.8894 277.2259 15.06381560167754
STARLINK-2537           
1 48301U 21036AB  24129.55650116 -.00001169  00000+0 -59633-4 0  9993
2 48301  53.0537 219.9610 0001499  90.2887 269.8274 15.06380370167742
STARLINK-2556           
1 48302U 21036AC  24129.55280768  .00003606  00000+0  26082-3 0  9993
2 48302  53.0536 219.9725 0001369  51.3490 308.7621 15.06401241167169
STARLINK-2530           
1 48303U 21036AD  24129.54815820 -.00005944  00000+0 -38046-3 0  9998
2 48303  53.0543 219.9866 0001237  94.7871 265.3259 15.06402053167754
STARLINK-2524           
1 48304U 21036AE  24129.54543847 -.00005151  00000+0 -32734-3 0  9994
2 48304  53.0547 220.0106 0001232  88.7601 271.3529 15.06382004167163
STARLINK-2519           
1 48305U 21036AF  24129.53075642 -.00002818  00000+0 -17035-3 0  9991
2 48305  53.0540 220.6539 0001279  90.4854 269.6281 15.06396258167154
STARLINK-2523           
1 48306U 21036AG  24129.53807396 -.00003255  00000+0 -19984-3 0  9992
2 48306  53.0539 220.0417 0001378  91.7084 268.4063 15.06379091167163
STARLINK-2528           
1 48307U 21036AH  24129.53438428 -.00004650  00000+0 -29362-3 0  9990
2 48307  53.0538 220.0574 0001513  86.1019 274.0143 15.06378432167164
STARLINK-2532           
1 48308U 21036AJ  24129.58334491  .01126781  61763-3  26162-2 0  9991
2 48308  53.0452 193.9895 0001239  70.8840 294.7739 15.96639493168124
